{
  "type": "FeatureCollection",
  "features": [
    {
      "type": "Feature",
      "properties": {
        "norad_id": 29486,
        "name": "GPS BIIRM-2 (PRN 31)",
        "group": "gps-ops",
        "lat": -53.85254040321495,
        "lon": 54.576102284627666,
        "alt_km": 20435.5907015721,
        "timestamp": "2025-12-18T08:58:43.669765+00:00",
        "meta_object_name": "GPS BIIRM-2 (PRN 31)",
        "meta_object_id": "2006-042A",
        "meta_epoch": "2025-12-16T18:24:54.505728",
        "meta_mean_motion": 2.00554045,
        "meta_eccentricity": 0.01073341,
        "meta_inclination": 54.6946,
        "meta_ra_of_asc_node": 158.5809,
        "meta_arg_of_pericenter": 52.0567,
        "meta_mean_anomaly": 130.2096,
        "meta_ephemeris_type": 0,
        "meta_classification_type": "U",
        "meta_norad_cat_id": 29486,
        "meta_element_set_no": 999,
        "meta_rev_at_epoch": 14073,
        "meta_bstar": 0,
        "meta_mean_motion_dot": 8.7e-07,
        "meta_mean_motion_ddot": 0,
        "tle_line1": "1 29486U 06042A   25350.76729752  .00000087  00000+0  00000+0 0  9994",
        "tle_line2": "2 29486  54.6946 158.5809 0107334  52.0567 130.2096  2.00554045140735"
      },
      "geometry": {
        "type": "Point",
        "coordinates": [
          54.576102284627666,
          -53.85254040321495
        ]
      }
    },
    {
      "type": "Feature",
      "properties": {
        "norad_id": 29601,
        "name": "GPS BIIRM-3 (PRN 12)",
        "group": "gps-ops",
        "lat": -32.058715904860165,
        "lon": -164.85861795188296,
        "alt_km": 20326.523769921452,
        "timestamp": "2025-12-18T08:58:43.669777+00:00",
        "meta_object_name": "GPS BIIRM-3 (PRN 12)",
        "meta_object_id": "2006-052A",
        "meta_epoch": "2025-12-16T22:25:58.603584",
        "meta_mean_motion": 2.00573965,
        "meta_eccentricity": 0.00876594,
        "meta_inclination": 54.9698,
        "meta_ra_of_asc_node": 221.2318,
        "meta_arg_of_pericenter": 87.3961,
        "meta_mean_anomaly": 273.6987,
        "meta_ephemeris_type": 0,
        "meta_classification_type": "U",
        "meta_norad_cat_id": 29601,
        "meta_element_set_no": 999,
        "meta_rev_at_epoch": 13975,
        "meta_bstar": 0,
        "meta_mean_motion_dot": 7e-07,
        "meta_mean_motion_ddot": 0,
        "tle_line1": "1 29601U 06052A   25350.93470606  .00000070  00000+0  00000+0 0  9996",
        "tle_line2": "2 29601  54.9698 221.2318 0087659  87.3961 273.6987  2.00573965139753"
      },
      "geometry": {
        "type": "Point",
        "coordinates": [
          -164.85861795188296,
          -32.058715904860165
        ]
      }
    },
    {
      "type": "Feature",
      "properties": {
        "norad_id": 32260,
        "name": "GPS BIIRM-4 (PRN 15)",
        "group": "gps-ops",
        "lat": 52.6068691769386,
        "lon": -164.50027859560427,
        "alt_km": 19756.140496675933,
        "timestamp": "2025-12-18T08:58:43.669788+00:00",
        "meta_object_name": "GPS BIIRM-4 (PRN 15)",
        "meta_object_id": "2007-047A",
        "meta_epoch": "2025-12-16T05:50:40.680960",
        "meta_mean_motion": 2.00564415,
        "meta_eccentricity": 0.01640743,
        "meta_inclination": 53.9576,
        "meta_ra_of_asc_node": 87.6137,
        "meta_arg_of_pericenter": 85.2864,
        "meta_mean_anomaly": 276.5744,
        "meta_ephemeris_type": 0,
        "meta_classification_type": "U",
        "meta_norad_cat_id": 32260,
        "meta_element_set_no": 999,
        "meta_rev_at_epoch": 13314,
        "meta_bstar": 0,
        "meta_mean_motion_dot": -5.5e-07,
        "meta_mean_motion_ddot": 0,
        "tle_line1": "1 32260U 07047A   25350.24352640 -.00000055  00000+0  00000+0 0  9991",
        "tle_line2": "2 32260  53.9576  87.6137 0164074  85.2864 276.5744  2.00564415133141"
      },
      "geometry": {
        "type": "Point",
        "coordinates": [
          -164.50027859560427,
          52.6068691769386
        ]
      }
    },
    {
      "type": "Feature",
      "properties": {
        "norad_id": 32384,
        "name": "GPS BIIRM-5 (PRN 29)",
        "group": "gps-ops",
        "lat": -39.04504694911314,
        "lon": 135.71753727669017,
        "alt_km": 20152.971729864144,
        "timestamp": "2025-12-18T08:58:43.669800+00:00",
        "meta_object_name": "GPS BIIRM-5 (PRN 29)",
        "meta_object_id": "2007-062A",
        "meta_epoch": "2025-12-16T19:22:21.732672",
        "meta_mean_motion": 2.00577594,
        "meta_eccentricity": 0.0032249,
        "meta_inclination": 55.1786,
        "meta_ra_of_asc_node": 281.4828,
        "meta_arg_of_pericenter": 162.2986,
        "meta_mean_anomaly": 15.9546,
        "meta_ephemeris_type": 0,
        "meta_classification_type": "U",
        "meta_norad_cat_id": 32384,
        "meta_element_set_no": 999,
        "meta_rev_at_epoch": 13185,
        "meta_bstar": 0,
        "meta_mean_motion_dot": -6.1e-07,
        "meta_mean_motion_ddot": 0,
        "tle_line1": "1 32384U 07062A   25350.80719598 -.00000061  00000+0  00000+0 0  9993",
        "tle_line2": "2 32384  55.1786 281.4828 0032249 162.2986  15.9546  2.00577594131858"
      },
      "geometry": {
        "type": "Point",
        "coordinates": [
          135.71753727669017,
          -39.04504694911314
        ]
      }
    },
    {
      "type": "Feature",
      "properties": {
        "norad_id": 32711,
        "name": "GPS BIIRM-6 (PRN 07)",
        "group": "gps-ops",
        "lat": 22.761108058394637,
        "lon": -40.31045014492965,
        "alt_km": 20200.960669595388,
        "timestamp": "2025-12-18T08:58:43.669812+00:00",
        "meta_object_name": "GPS BIIRM-6 (PRN 07)",
        "meta_object_id": "2008-012A",
        "meta_epoch": "2025-12-17T15:49:41.765088",
        "meta_mean_motion": 2.00565872,
        "meta_eccentricity": 0.02026437,
        "meta_inclination": 54.4776,
        "meta_ra_of_asc_node": 157.1765,
        "meta_arg_of_pericenter": 245.005,
        "meta_mean_anomaly": 112.8804,
        "meta_ephemeris_type": 0,
        "meta_classification_type": "U",
        "meta_norad_cat_id": 32711,
        "meta_element_set_no": 999,
        "meta_rev_at_epoch": 13011,
        "meta_bstar": 0,
        "meta_mean_motion_dot": 7.7e-07,
        "meta_mean_motion_ddot": 0,
        "tle_line1": "1 32711U 08012A   25351.65951117  .00000077  00000+0  00000+0 0  9998",
        "tle_line2": "2 32711  54.4776 157.1765 0202643 245.0050 112.8804  2.00565872130119"
      },
      "geometry": {
        "type": "Point",
        "coordinates": [
          -40.31045014492965,
          22.761108058394637
        ]
      }
    },
    {
      "type": "Feature",
      "properties": {
        "norad_id": 35752,
        "name": "GPS BIIRM-8 (PRN 05)",
        "group": "gps-ops",
        "lat": 4.645104064404011,
        "lon": -148.54905961799315,
        "alt_km": 20187.226209336117,
        "timestamp": "2025-12-18T08:58:43.669824+00:00",
        "meta_object_name": "GPS BIIRM-8 (PRN 05)",
        "meta_object_id": "2009-043A",
        "meta_epoch": "2025-12-15T22:20:02.106816",
        "meta_mean_motion": 2.00565586,
        "meta_eccentricity": 0.00517182,
        "meta_inclination": 56.0932,
        "meta_ra_of_asc_node": 34.6571,
        "meta_arg_of_pericenter": 81.8462,
        "meta_mean_anomaly": 127.6063,
        "meta_ephemeris_type": 0,
        "meta_classification_type": "U",
        "meta_norad_cat_id": 35752,
        "meta_element_set_no": 999,
        "meta_rev_at_epoch": 11968,
        "meta_bstar": 0,
        "meta_mean_motion_dot": -8.6e-07,
        "meta_mean_motion_ddot": 0,
        "tle_line1": "1 35752U 09043A   25349.93057994 -.00000086  00000+0  00000+0 0  9990",
        "tle_line2": "2 35752  56.0932  34.6571 0051718  81.8462 127.6063  2.00565586119683"
      },
      "geometry": {
        "type": "Point",
        "coordinates": [
          -148.54905961799315,
          4.645104064404011
        ]
      }
    },
    {
      "type": "Feature",
      "properties": {
        "norad_id": 36585,
        "name": "GPS BIIF-1  (PRN 25)",
        "group": "gps-ops",
        "lat": -49.34677240431216,
        "lon": 159.0282023955322,
        "alt_km": 20420.506312814385,
        "timestamp": "2025-12-18T08:58:43.669835+00:00",
        "meta_object_name": "GPS BIIF-1  (PRN 25)",
        "meta_object_id": "2010-022A",
        "meta_epoch": "2025-12-16T18:11:46.819392",
        "meta_mean_motion": 2.00553492,
        "meta_eccentricity": 0.01262844,
        "meta_inclination": 54.2994,
        "meta_ra_of_asc_node": 215.9118,
        "meta_arg_of_pericenter": 65.1252,
        "meta_mean_anomaly": 140.1445,
        "meta_ephemeris_type": 0,
        "meta_classification_type": "U",
        "meta_norad_cat_id": 36585,
        "meta_element_set_no": 999,
        "meta_rev_at_epoch": 11393,
        "meta_bstar": 0,
        "meta_mean_motion_dot": 7.7e-07,
        "meta_mean_motion_ddot": 0,
        "tle_line1": "1 36585U 10022A   25350.75818078  .00000077  00000+0  00000+0 0  9993",
        "tle_line2": "2 36585  54.2994 215.9118 0126284  65.1252 140.1445  2.00553492113939"
      },
      "geometry": {
        "type": "Point",
        "coordinates": [
          159.0282023955322,
          -49.34677240431216
        ]
      }
    }
  ]
}